OBJECT_NAME,OBJECT_ID,EPOCH,MEAN_MOTION,ECCENTRICITY,INCLINATION,RA_OF_ASC_NODE,ARG_OF_PERICENTER,MEAN_ANOMALY,EPHEMERIS_TYPE,CLASSIFICATION_TYPE,NORAD_CAT_ID,ELEMENT_SET_NO,REV_AT_EPOCH,BSTAR,MEAN_MOTION_DOT,MEAN_MOTION_DDOT
LEMUR-2-ROUNDTRIPPER,2025-009DG,2026-07-16T04:00:53.958816,15.04240391,.00044876,97.7251,279.8114,62.0486,298.1193,0,U,62711,999,8198,.3113625E-3,.4268E-4,0
LEMUR-2-MYNAMEISJEFF,2025-009DH,2026-07-15T18:23:59.378208,15.04228449,.0004115,97.7301,279.8094,96.2499,263.9195,0,U,62712,999,8192,.32837E-3,.4503E-4,0
LEMUR-2-LEIA-PHILIP,2025-052AN,2026-07-16T04:56:23.654112,14.97391818,.00050935,97.6803,88.6647,117.2650,242.9092,0,U,63246,999,7301,.8185388E-5,.38E-6,0
LEMUR-2-LIA-MARTIN,2025-052AQ,2026-07-16T04:47:55.888224,14.98033914,.00052475,97.6864,89.1794,87.9302,272.2521,0,U,63248,999,7302,.14825807E-3,.1694E-4,0
LEMUR-2-DELOITTE-1,2025-052BB,2026-07-16T05:56:13.737408,14.97786748,.00025983,97.6880,89.5559,64.8195,295.3297,0,U,63259,999,7304,.19988204E-3,.2289E-4,0
LEMUR-2-EMERSONROSE,2025-052BD,2026-07-16T04:39:01.226016,14.99295828,.0002674,97.6884,90.1187,59.1899,300.9587,0,U,63261,999,7308,.20361116E-3,.2427E-4,0
LEMUR-2-MARACHE-FRAN,2025-052BE,2026-07-16T05:10:44.492736,15.00318757,.00052882,97.6830,90.5088,248.3368,111.7292,0,U,63262,999,7311,.13042817E-3,.1576E-4,0
LEMUR-2-THEFALCONER,2025-052BG,2026-07-16T05:04:05.426688,14.97565040,.00003205,97.6827,89.1100,272.4617,87.6568,0,U,63264,999,7303,.89191921E-4,.984E-5,0
LEMUR-2-UNTITLED-SC,2025-061A,2026-07-16T04:15:39.005856,15.13649019,.0019291,97.5657,172.3340,159.8388,200.3609,0,U,63351,999,7197,.97363663E-4,.169E-4,0
LEMUR-2-ESPERANZA,2025-061B,2026-07-15T21:19:16.834656,15.13754973,.0018885,97.5664,172.1471,159.9774,200.2202,0,U,63352,999,7193,.10045E-3,.1751E-4,0
LEMUR-2-KREMPEL-BRO2,2025-061C,2026-07-15T23:21:28.752480,15.14181507,.00200691,97.5706,172.8015,152.6735,207.5557,0,U,63353,999,7196,.92651813E-4,.1631E-4,0
LEMUR-2-THERMORAPTOR,2025-061D,2026-07-15T21:18:16.015104,15.14264291,.0019789,97.5712,172.7977,151.8094,208.4213,0,U,63354,999,7195,.11648E-3,.2072E-4,0
LEMUR-2-NEUROSPICY,2025-061E,2026-07-16T04:30:01.766016,15.14384106,.00176035,97.5641,172.6997,153.6477,206.5653,0,U,63355,999,7200,.87740342E-4,.1548E-4,0
LEMUR-2-TILLINFINITY,2025-061F,2026-07-15T21:09:09.622368,15.14967400,.0019137,97.5625,172.7060,143.6124,216.6413,0,U,63356,999,7198,.12104E-3,.2199E-4,0
LEMUR-2-KREMPEL-BRO1,2025-061G,2026-07-15T22:11:21.634944,15.14774664,.0019755,97.5626,172.6569,144.8713,215.3826,0,U,63357,999,7198,.96037E-4,.1722E-4,0
LEMUR-2-LANGER2SPACE,2025-061H,2026-07-15T21:22:41.610432,15.14467754,.0017462,97.5633,172.4259,152.9152,207.2994,0,U,63358,999,7196,.11276979E-3,.2014E-4,0
LEMUR-2-BALTO,2025-052BH,2026-07-16T04:48:10.462176,15.00368807,.00050728,97.6927,90.4830,323.3360,36.7515,0,U,63395,999,7311,.18858812E-3,.2308E-4,0
LEMUR-2-KRISH,2025-135AK,2026-07-16T05:31:33.345120,14.96451935,.00012556,97.7774,311.9139,96.3399,263.7966,0,U,64561,999,5826,.14947061E-3,.1637E-4,0
LEMUR-2-HUBBLE-4,2025-135AP,2026-07-16T06:43:13.111104,14.93687646,.00027539,97.7720,310.8494,159.3037,200.8294,0,U,64565,999,5821,.73057448E-4,.716E-5,0
LEMUR-2-SEJONG-2,2025-135BL,2026-07-16T07:37:38.648352,14.96916393,.00040418,97.7709,312.1461,213.4590,146.6377,0,U,64586,999,5830,.18629451E-3,.208E-4,0
LEMUR-2-HUBBLE-5,2025-135BT,2026-07-16T06:55:23.356992,14.94215156,.00043851,97.7741,311.5280,230.7774,129.3057,0,U,64840,999,5825,.52866934E-4,.509E-5,0
LEMUR-2-KARENDARRELL,2025-135BU,2026-07-15T19:07:08.897664,15.00505264,.0012499,97.7719,312.9676,102.9205,257.3415,0,U,64841,999,5830,.34587499E-3,.4305E-4,0
LEMUR-2-LUCILLE-ROSE,2025-135BV,2026-07-16T07:17:09.185856,15.00495624,.00150319,97.7711,313.5095,185.6878,174.4177,0,U,65403,999,5300,.25192648E-3,.3119E-4,0
LEMUR-2-AFFIE-WAUWIE,2025-248C,2026-07-15T08:51:52.657344,15.28256430,.00087669,45.3887,322.1687,251.4181,108.5756,0,U,66295,999,3890,.46577019E-3,.12792E-3,0
OTTER SDM,2025-276N,2026-07-16T03:36:52.500960,15.20063289,.00043382,97.4204,270.1502,249.3545,110.7225,0,U,66678,999,3481,.16749566E-3,.3546E-4,0
LEMUR-2-STAS-GORBUK,2025-276W,2026-07-16T05:42:54.925344,15.19664199,.00036603,97.4238,270.2880,242.8310,117.2552,0,U,66686,999,3482,.12956844E-3,.2695E-4,0
LEMUR-2-TEODOR,2025-276DG,2026-07-16T04:33:35.087616,15.21342759,.00021977,97.4143,270.5138,87.7536,272.3951,0,U,66768,999,3485,.13037477E-3,.2851E-4,0
LEMUR-2-LAILA,2025-276DQ,2026-07-16T03:49:53.178528,15.21569099,.00029211,97.4166,270.6230,92.6922,267.4649,0,U,66776,999,3485,.13618672E-3,.3001E-4,0
LEMUR-2-CELIJO-SB-PK,2025-276DW,2026-07-16T04:26:51.254880,15.00290087,.00069255,97.5192,267.0056,61.9431,298.2493,0,U,66781,999,2697,.24295294E-3,.2988E-4,0
LEMUR-2-FINNIAN,2025-276DX,2026-07-16T03:43:44.272992,15.00622308,.00070976,97.5343,267.2469,355.3535,4.7622,0,U,66782,999,2434,.11978851E-3,.1457E-4,0
